{
"type": "FeatureCollection",
"name": "hvi",
"crs": { "type": "name", "properties": { "name": "urn:ogc:def:crs:OGC:1.3:CRS84" } },
"features": [
{ "type": "Feature", "properties": { "geoid": "040131139002", "total_population": 1419, "hvi": 1.3505102503574922, "z_svi": 1.2543286684112847, "z_pct_age65_plus": -0.89367839126535031, "z_pct_age_under5": 2.785123654242613, "z_asthma_chd_prevalence": 1.6326963135500641, "z_pct_renter": 0.95010714933236573, "z_pct_no_vehicle": 2.3744841078739753 }, "geometry": { "type": "Polygon", "coordinates": [ [ [ -112.047789, 33.444349 ], [ -112.047788, 33.444525 ], [ -112.047784, 33.445178 ], [ -112.047767, 33.446174 ], [ -112.047725, 33.446992 ], [ -112.047735, 33.447153 ], [ -112.047743, 33.447218 ], [ -112.047755, 33.447336 ], [ -112.047747, 33.448324 ], [ -112.047749, 33.449243 ], [ -112.047745, 33.449455 ], [ -112.047725, 33.450443 ], [ -112.047705, 33.451425 ], [ -112.046701, 33.451427 ], [ -112.045546, 33.451428 ], [ -112.044455, 33.451428 ], [ -112.043372, 33.451428 ], [ -112.042616609666723, 33.451429043868259 ], [ -112.042532415840327, 33.444392561353624 ], [ -112.047789003642734, 33.444348253236591 ], [ -112.047789, 33.444349 ] ] ] } },
{ "type": "Feature", "properties": { "geoid": "040131140001", "total_population": 509, "hvi": 0.19171275985348502, "z_svi": -0.26991279228558374, "z_pct_age65_plus": 2.3559597997759822, "z_pct_age_under5": -1.0237848096564015, "z_asthma_chd_prevalence": -0.63745070176387997, "z_pct_renter": 0.66438720830612241, "z_pct_no_vehicle": 0.061077854744670763 }, "geometry": { "type": "Polygon", "coordinates": [ [ [ -112.058958, 33.450561 ], [ -112.058956, 33.451362 ], [ -112.058103, 33.451362 ], [ -112.057783, 33.451363 ], [ -112.05704, 33.451365 ], [ -112.056406, 33.451366 ], [ -112.055915, 33.451366 ], [ -112.054719, 33.451377 ], [ -112.054203, 33.45138 ], [ -112.053696, 33.451385 ], [ -112.052224, 33.451394 ], [ -112.052036, 33.451396 ], [ -112.049869, 33.451413 ], [ -112.04893, 33.45142 ], [ -112.047705, 33.451425 ], [ -112.047725, 33.450443 ], [ -112.047745, 33.449455 ], [ -112.047749, 33.449243 ], [ -112.047747, 33.448324 ], [ -112.049889, 33.448312 ], [ -112.052048, 33.448298 ], [ -112.054214, 33.448286 ], [ -112.056416, 33.448276 ], [ -112.058965, 33.448279 ], [ -112.05896, 33.449835 ], [ -112.058958, 33.450561 ] ] ] } },
{ "type": "Feature", "properties": { "geoid": "040131132012", "total_population": 903, "hvi": -0.52643413059299971, "z_svi": -0.44467968638526939, "z_pct_age65_plus": -0.68562556144257103, "z_pct_age_under5": 0.49060048321911043, "z_asthma_chd_prevalence": -0.44827178382105198, "z_pct_renter": -0.97980803277803896, "z_pct_no_vehicle": -1.0908202023501774 }, "geometry": { "type": "Polygon", "coordinates": [ [ [ -112.056444, 33.455821 ], [ -112.05437, 33.455818 ], [ -112.054395, 33.454845 ], [ -112.052162, 33.454848 ], [ -112.05193, 33.454856 ], [ -112.048919, 33.454858 ], [ -112.048283, 33.454858 ], [ -112.047886, 33.454847 ], [ -112.047681, 33.454845 ], [ -112.047685, 33.45413 ], [ -112.047677, 33.45335 ], [ -112.047683, 33.452928 ], [ -112.047705, 33.451425 ], [ -112.04893, 33.45142 ], [ -112.049869, 33.451413 ], [ -112.052036, 33.451396 ], [ -112.052224, 33.451394 ], [ -112.053696, 33.451385 ], [ -112.054203, 33.45138 ], [ -112.054719, 33.451377 ], [ -112.055915, 33.451366 ], [ -112.055928, 33.452902 ], [ -112.055932, 33.453341 ], [ -112.055944, 33.453874 ], [ -112.056444, 33.453874 ], [ -112.056448, 33.454279 ], [ -112.056445, 33.454845 ], [ -112.056444, 33.455821 ] ] ] } },
{ "type": "Feature", "properties": { "geoid": "040131133011", "total_population": 1491, "hvi": 0.90788278966768876, "z_svi": 1.3633009670852059, "z_pct_age65_plus": 0.095627962814367681, "z_pct_age_under5": 1.0725875877245887, "z_asthma_chd_prevalence": 1.5696366742357879, "z_pct_renter": 0.72253120575634211, "z_pct_no_vehicle": 0.6236123403898407 }, "geometry": { "type": "Polygon", "coordinates": [ [ [ -112.047677, 33.45335 ], [ -112.047685, 33.45413 ], [ -112.047681, 33.454845 ], [ -112.04767, 33.455818 ], [ -112.047678, 33.456182 ], [ -112.047673, 33.456781 ], [ -112.047662, 33.457745 ], [ -112.047639, 33.458728 ], [ -112.047449, 33.458717 ], [ -112.044404, 33.458692 ], [ -112.043311, 33.458689 ], [ -112.042703461010177, 33.45868505873753 ], [ -112.042616609666723, 33.451429043868259 ], [ -112.043372, 33.451428 ], [ -112.044455, 33.451428 ], [ -112.045546, 33.451428 ], [ -112.046701, 33.451427 ], [ -112.047705, 33.451425 ], [ -112.047683, 33.452928 ], [ -112.047677, 33.45335 ] ] ] } },
{ "type": "Feature", "properties": { "geoid": "040131132011", "total_population": 1341, "hvi": -0.45638173945606725, "z_svi": -0.44467968638526939, "z_pct_age65_plus": 0.11094784563816361, "z_pct_age_under5": 0.41681984255204596, "z_asthma_chd_prevalence": -0.44827178382105198, "z_pct_renter": -1.2822864523701145, "z_pct_no_vehicle": -1.0908202023501774 }, "geometry": { "type": "Polygon", "coordinates": [ [ [ -112.056434, 33.45678 ], [ -112.056437, 33.457746 ], [ -112.056442, 33.45816 ], [ -112.056439, 33.458688 ], [ -112.055744, 33.45871 ], [ -112.055038, 33.45872 ], [ -112.054293, 33.458725 ], [ -112.05263, 33.45873 ], [ -112.052047, 33.458728 ], [ -112.050718, 33.458717 ], [ -112.049823, 33.45872 ], [ -112.048151, 33.458725 ], [ -112.047691, 33.458729 ], [ -112.047639, 33.458728 ], [ -112.047662, 33.457745 ], [ -112.047673, 33.456781 ], [ -112.047678, 33.456182 ], [ -112.04767, 33.455818 ], [ -112.047681, 33.454845 ], [ -112.047886, 33.454847 ], [ -112.048283, 33.454858 ], [ -112.048919, 33.454858 ], [ -112.05193, 33.454856 ], [ -112.052162, 33.454848 ], [ -112.054395, 33.454845 ], [ -112.05437, 33.455818 ], [ -112.056444, 33.455821 ], [ -112.056439, 33.455953 ], [ -112.056434, 33.45678 ] ] ] } },
{ "type": "Feature", "properties": { "geoid": "040131133014", "total_population": 292, "hvi": 0.65055073016882237, "z_svi": 1.3633009670852059, "z_pct_age65_plus": -0.3660106209915801, "z_pct_age_under5": 0.83462179975133277, "z_asthma_chd_prevalence": 1.5696366742357879, "z_pct_renter": -0.12185677945765315, "z_pct_no_vehicle": 0.6236123403898407 }, "geometry": { "type": "Polygon", "coordinates": [ [ [ -112.047464, 33.461862 ], [ -112.046797, 33.461852 ], [ -112.04517, 33.461944 ], [ -112.044617, 33.461956 ], [ -112.043627, 33.461938 ], [ -112.042742180110508, 33.461919014283936 ], [ -112.042703461010177, 33.45868505873753 ], [ -112.043311, 33.458689 ], [ -112.044404, 33.458692 ], [ -112.047449, 33.458717 ], [ -112.047639, 33.458728 ], [ -112.047645, 33.459631 ], [ -112.047652, 33.460524 ], [ -112.047661, 33.460862 ], [ -112.047694, 33.461309 ], [ -112.047702, 33.461582 ], [ -112.047711, 33.461858 ], [ -112.047464, 33.461862 ] ] ] } },
{ "type": "Feature", "properties": { "geoid": "040131132041", "total_population": 1622, "hvi": -0.15890984134530958, "z_svi": -0.11570670925644937, "z_pct_age65_plus": 1.2009508354482044, "z_pct_age_under5": 0.073568774946774718, "z_asthma_chd_prevalence": -0.63745070176387997, "z_pct_renter": -1.0409618562932332, "z_pct_no_vehicle": -0.43385939115327399 }, "geometry": { "type": "Polygon", "coordinates": [ [ [ -112.065198, 33.459988 ], [ -112.065186, 33.460296 ], [ -112.065187, 33.460956 ], [ -112.065188, 33.461449 ], [ -112.065164, 33.462037 ], [ -112.065017, 33.462027 ], [ -112.064505, 33.461996 ], [ -112.063061, 33.461881 ], [ -112.06253, 33.461826 ], [ -112.061947, 33.461779 ], [ -112.061363, 33.461747 ], [ -112.060567, 33.461723 ], [ -112.059113, 33.461706 ], [ -112.056609, 33.4617 ], [ -112.056395, 33.461708 ], [ -112.056193, 33.461714 ], [ -112.055462, 33.461723 ], [ -112.054637, 33.461748 ], [ -112.054185, 33.461772 ], [ -112.053296, 33.46183 ], [ -112.05201, 33.4619 ], [ -112.051982, 33.461903 ], [ -112.051356, 33.461911 ], [ -112.050592, 33.46191 ], [ -112.049859, 33.461895 ], [ -112.049725, 33.461893 ], [ -112.049086, 33.46188 ], [ -112.047711, 33.461858 ], [ -112.047702, 33.461582 ], [ -112.047694, 33.461309 ], [ -112.047661, 33.460862 ], [ -112.047652, 33.460524 ], [ -112.047645, 33.459631 ], [ -112.047639, 33.458728 ], [ -112.047691, 33.458729 ], [ -112.048151, 33.458725 ], [ -112.049823, 33.45872 ], [ -112.050718, 33.458717 ], [ -112.052047, 33.458728 ], [ -112.05263, 33.45873 ], [ -112.054293, 33.458725 ], [ -112.055038, 33.45872 ], [ -112.055744, 33.45871 ], [ -112.056439, 33.458688 ], [ -112.056506, 33.458685 ], [ -112.057103, 33.45868 ], [ -112.058935, 33.458681 ], [ -112.060657, 33.458682 ], [ -112.060793, 33.458682 ], [ -112.061501, 33.458681 ], [ -112.062055, 33.458688 ], [ -112.062522, 33.458694 ], [ -112.063615, 33.458697 ], [ -112.064307, 33.458697 ], [ -112.065218, 33.458678 ], [ -112.065217, 33.45948 ], [ -112.065198, 33.459988 ] ] ] } },
{ "type": "Feature", "properties": { "geoid": "040131132043", "total_population": 378, "hvi": -0.62843283670191019, "z_svi": -0.11570670925644937, "z_pct_age65_plus": -0.16735459977010192, "z_pct_age_under5": 0.64150483780017986, "z_asthma_chd_prevalence": -0.63745070176387997, "z_pct_renter": -3.0577304560679361, "z_pct_no_vehicle": -0.43385939115327399 }, "geometry": { "type": "Polygon", "coordinates": [ [ [ -112.047718, 33.462795 ], [ -112.047702, 33.463654 ], [ -112.047701, 33.46376 ], [ -112.047698, 33.464739 ], [ -112.047691, 33.465738 ], [ -112.047169, 33.46573 ], [ -112.046307, 33.465738 ], [ -112.045502, 33.465757 ], [ -112.04527, 33.465759 ], [ -112.044244, 33.465755 ], [ -112.043337, 33.465759 ], [ -112.042788180648316, 33.465760467872393 ], [ -112.042742180110508, 33.461919014283936 ], [ -112.043627, 33.461938 ], [ -112.044617, 33.461956 ], [ -112.04517, 33.461944 ], [ -112.046797, 33.461852 ], [ -112.047464, 33.461862 ], [ -112.047711, 33.461858 ], [ -112.047722, 33.462242 ], [ -112.047726, 33.462457 ], [ -112.047722, 33.462629 ], [ -112.047718, 33.462795 ] ] ] } },
{ "type": "Feature", "properties": { "geoid": "040131132042", "total_population": 484, "hvi": -0.21257190324834538, "z_svi": -0.11570670925644937, "z_pct_age65_plus": -0.49340109598419823, "z_pct_age_under5": 0.5907251306819542, "z_asthma_chd_prevalence": -0.63745070176387997, "z_pct_renter": -0.18573865201422499, "z_pct_no_vehicle": -0.43385939115327399 }, "geometry": { "type": "Polygon", "coordinates": [ [ [ -112.065152, 33.462404 ], [ -112.065145, 33.46276 ], [ -112.065127, 33.463619 ], [ -112.065117, 33.463796 ], [ -112.06511, 33.463909 ], [ -112.065108, 33.463939 ], [ -112.065074, 33.464554 ], [ -112.065072, 33.464669 ], [ -112.065073, 33.464903 ], [ -112.065083405231846, 33.465666366425204 ], [ -112.05980018376394, 33.465711649787565 ], [ -112.059658, 33.465711 ], [ -112.05854, 33.465714 ], [ -112.057449, 33.465719 ], [ -112.056336, 33.465721 ], [ -112.056028, 33.465725 ], [ -112.055137, 33.465724 ], [ -112.054241, 33.465736 ], [ -112.052763, 33.46575 ], [ -112.052031, 33.465753 ], [ -112.050444, 33.465757 ], [ -112.049836, 33.465749 ], [ -112.048429, 33.465733 ], [ -112.048116, 33.465735 ], [ -112.047767, 33.465739 ], [ -112.047691, 33.465738 ], [ -112.047698, 33.464739 ], [ -112.047701, 33.46376 ], [ -112.047702, 33.463654 ], [ -112.047718, 33.462795 ], [ -112.047722, 33.462629 ], [ -112.047726, 33.462457 ], [ -112.047722, 33.462242 ], [ -112.047711, 33.461858 ], [ -112.049086, 33.46188 ], [ -112.049725, 33.461893 ], [ -112.049859, 33.461895 ], [ -112.050592, 33.46191 ], [ -112.051356, 33.461911 ], [ -112.051982, 33.461903 ], [ -112.05201, 33.4619 ], [ -112.053296, 33.46183 ], [ -112.054185, 33.461772 ], [ -112.054637, 33.461748 ], [ -112.055462, 33.461723 ], [ -112.056193, 33.461714 ], [ -112.056395, 33.461708 ], [ -112.056609, 33.4617 ], [ -112.059113, 33.461706 ], [ -112.060567, 33.461723 ], [ -112.061363, 33.461747 ], [ -112.061947, 33.461779 ], [ -112.06253, 33.461826 ], [ -112.063061, 33.461881 ], [ -112.064505, 33.461996 ], [ -112.065017, 33.462027 ], [ -112.065164, 33.462037 ], [ -112.065158, 33.462179 ], [ -112.065152, 33.462404 ] ] ] } },
{ "type": "Feature", "properties": { "geoid": "040131140004", "total_population": 334, "hvi": -0.38098938683713662, "z_svi": -0.26991279228558374, "z_pct_age65_plus": -1.011039360326043, "z_pct_age_under5": -1.0237848096564015, "z_asthma_chd_prevalence": -0.63745070176387997, "z_pct_renter": 0.59517348826441774, "z_pct_no_vehicle": 0.061077854744670763 }, "geometry": { "type": "Polygon", "coordinates": [ [ [ -112.065125, 33.44502 ], [ -112.065092, 33.445343 ], [ -112.065076, 33.44567 ], [ -112.065075, 33.445808 ], [ -112.065073, 33.44634 ], [ -112.065069, 33.447066 ], [ -112.06507, 33.447172 ], [ -112.065093, 33.447944 ], [ -112.065113, 33.448283 ], [ -112.063639, 33.448283 ], [ -112.06208, 33.448279 ], [ -112.060484, 33.448279 ], [ -112.058965, 33.448279 ], [ -112.056416, 33.448276 ], [ -112.054214, 33.448286 ], [ -112.052048, 33.448298 ], [ -112.049889, 33.448312 ], [ -112.047747, 33.448324 ], [ -112.047755, 33.447336 ], [ -112.047743, 33.447218 ], [ -112.047735, 33.447153 ], [ -112.047725, 33.446992 ], [ -112.047767, 33.446174 ], [ -112.047784, 33.445178 ], [ -112.047788, 33.444525 ], [ -112.047789, 33.444349 ], [ -112.052351, 33.444324 ], [ -112.054224, 33.444325 ], [ -112.054601, 33.444327 ], [ -112.056509, 33.444315 ], [ -112.064444, 33.444339 ], [ -112.065111, 33.444222 ], [ -112.065258, 33.444221 ], [ -112.065135, 33.444944 ], [ -112.065125, 33.44502 ] ] ] } },
{ "type": "Feature", "properties": { "geoid": "040131141001", "total_population": 2061, "hvi": -0.66435561849038061, "z_svi": -2.0511643913643431, "z_pct_age65_plus": -0.66284307593277891, "z_pct_age_under5": -0.97112544721612404, "z_asthma_chd_prevalence": -1.0788681769638138, "z_pct_renter": -0.077152764149475084, "z_pct_no_vehicle": 0.85502014468425036 }, "geometry": { "type": "Polygon", "coordinates": [ [ [ -112.068699, 33.451386 ], [ -112.067536, 33.451382 ], [ -112.067472, 33.451374 ], [ -112.066207, 33.451375 ], [ -112.065359, 33.451376 ], [ -112.065143, 33.451358 ], [ -112.065128, 33.450403 ], [ -112.065122, 33.450014 ], [ -112.065117, 33.449668 ], [ -112.065113, 33.449385 ], [ -112.065123, 33.449223 ], [ -112.065131, 33.449021 ], [ -112.065124, 33.448445 ], [ -112.065113, 33.448283 ], [ -112.065093, 33.447944 ], [ -112.06507, 33.447172 ], [ -112.065069, 33.447066 ], [ -112.065073, 33.44634 ], [ -112.065075, 33.445808 ], [ -112.065076, 33.44567 ], [ -112.065092, 33.445343 ], [ -112.065125, 33.44502 ], [ -112.065135, 33.444944 ], [ -112.065258, 33.444221 ], [ -112.065736, 33.444218 ], [ -112.066219, 33.444217 ], [ -112.066615, 33.444215 ], [ -112.067481, 33.444212 ], [ -112.067982, 33.44421 ], [ -112.068672969381282, 33.444208011610137 ], [ -112.068761014318966, 33.451386344006124 ], [ -112.068699, 33.451386 ] ] ] } },
{ "type": "Feature", "properties": { "geoid": "040131140003", "total_population": 1014, "hvi": -0.31927302710714117, "z_svi": -0.26991279228558374, "z_pct_age65_plus": 0.004265394894607092, "z_pct_age_under5": -0.91675231854258332, "z_asthma_chd_prevalence": -0.63745070176387997, "z_pct_renter": -0.15686559969007779, "z_pct_no_vehicle": 0.061077854744670763 }, "geometry": { "type": "Polygon", "coordinates": [ [ [ -112.064987, 33.451352 ], [ -112.064235, 33.451354 ], [ -112.062074, 33.451357 ], [ -112.060808, 33.451359 ], [ -112.060417, 33.45136 ], [ -112.060053, 33.45136 ], [ -112.058956, 33.451362 ], [ -112.058958, 33.450561 ], [ -112.05896, 33.449835 ], [ -112.058965, 33.448279 ], [ -112.060484, 33.448279 ], [ -112.06208, 33.448279 ], [ -112.063639, 33.448283 ], [ -112.065113, 33.448283 ], [ -112.065124, 33.448445 ], [ -112.065131, 33.449021 ], [ -112.065123, 33.449223 ], [ -112.065113, 33.449385 ], [ -112.065117, 33.449668 ], [ -112.065122, 33.450014 ], [ -112.065128, 33.450403 ], [ -112.065143, 33.451358 ], [ -112.064987, 33.451352 ] ] ] } },
{ "type": "Feature", "properties": { "geoid": "040131132022", "total_population": 1167, "hvi": -0.17038113104782801, "z_svi": 0.68342348101897732, "z_pct_age65_plus": -0.99549292475646367, "z_pct_age_under5": 0.72461432025014494, "z_asthma_chd_prevalence": -0.16450340690680829, "z_pct_renter": -0.38572835054649512, "z_pct_no_vehicle": -0.88459990534632316 }, "geometry": { "type": "Polygon", "coordinates": [ [ [ -112.065209, 33.45552 ], [ -112.06521, 33.455837 ], [ -112.062061, 33.455827 ], [ -112.061902, 33.455816 ], [ -112.06067, 33.455813 ], [ -112.060509, 33.455817 ], [ -112.060355, 33.455821 ], [ -112.058943, 33.455819 ], [ -112.058836, 33.455816 ], [ -112.057001, 33.455821 ], [ -112.056444, 33.455821 ], [ -112.056445, 33.454845 ], [ -112.056448, 33.454279 ], [ -112.056444, 33.453874 ], [ -112.055944, 33.453874 ], [ -112.055932, 33.453341 ], [ -112.055928, 33.452902 ], [ -112.055915, 33.451366 ], [ -112.056406, 33.451366 ], [ -112.05704, 33.451365 ], [ -112.057783, 33.451363 ], [ -112.058103, 33.451362 ], [ -112.058956, 33.451362 ], [ -112.060053, 33.45136 ], [ -112.060417, 33.45136 ], [ -112.060808, 33.451359 ], [ -112.062074, 33.451357 ], [ -112.064235, 33.451354 ], [ -112.064987, 33.451352 ], [ -112.065143, 33.451358 ], [ -112.065163, 33.452353 ], [ -112.065214, 33.454521 ], [ -112.065207, 33.454762 ], [ -112.065209, 33.45552 ] ] ] } },
{ "type": "Feature", "properties": { "geoid": "040131131003", "total_population": 2404, "hvi": -0.19238703131632742, "z_svi": -0.70306054550519759, "z_pct_age65_plus": -0.16003091928459082, "z_pct_age_under5": -1.0237848096564015, "z_asthma_chd_prevalence": -0.22756304622108428, "z_pct_renter": 1.0614554482899969, "z_pct_no_vehicle": -0.10133831552068744 }, "geometry": { "type": "Polygon", "coordinates": [ [ [ -112.068724, 33.454484 ], [ -112.067913, 33.454481 ], [ -112.067475, 33.454479 ], [ -112.067441, 33.454479 ], [ -112.066234, 33.454473 ], [ -112.065592, 33.454467 ], [ -112.065402, 33.454472 ], [ -112.065329, 33.454484 ], [ -112.065214, 33.454521 ], [ -112.065163, 33.452353 ], [ -112.065143, 33.451358 ], [ -112.065359, 33.451376 ], [ -112.066207, 33.451375 ], [ -112.067472, 33.451374 ], [ -112.067536, 33.451382 ], [ -112.068699, 33.451386 ], [ -112.068761014318966, 33.451386344006124 ], [ -112.068799019379355, 33.454484120386574 ], [ -112.068724, 33.454484 ] ] ] } },
{ "type": "Feature", "properties": { "geoid": "040131131002", "total_population": 1767, "hvi": -0.28377719592043921, "z_svi": -0.70306054550519759, "z_pct_age65_plus": -0.54265098145932489, "z_pct_age_under5": -1.0237848096564015, "z_asthma_chd_prevalence": -0.22756304622108428, "z_pct_renter": 0.89573452284006061, "z_pct_no_vehicle": -0.10133831552068744 }, "geometry": { "type": "Polygon", "coordinates": [ [ [ -112.068703, 33.458697 ], [ -112.06798, 33.458682 ], [ -112.067473, 33.458681 ], [ -112.066228, 33.45868 ], [ -112.065416, 33.458674 ], [ -112.065218, 33.458678 ], [ -112.065215, 33.457554 ], [ -112.065213, 33.456729 ], [ -112.065212, 33.456566 ], [ -112.06521, 33.455837 ], [ -112.065209, 33.45552 ], [ -112.065207, 33.454762 ], [ -112.065214, 33.454521 ], [ -112.065329, 33.454484 ], [ -112.065402, 33.454472 ], [ -112.065592, 33.454467 ], [ -112.066234, 33.454473 ], [ -112.067441, 33.454479 ], [ -112.067475, 33.454479 ], [ -112.067913, 33.454481 ], [ -112.068724, 33.454484 ], [ -112.068799019379355, 33.454484120386574 ], [ -112.06885074337309, 33.458699357631048 ], [ -112.068703, 33.458697 ] ] ] } },
{ "type": "Feature", "properties": { "geoid": "040131132021", "total_population": 974, "hvi": -0.12812088016285872, "z_svi": 0.68342348101897732, "z_pct_age65_plus": -0.013041731332905045, "z_pct_age_under5": 0.69220756019671981, "z_asthma_chd_prevalence": -0.16450340690680829, "z_pct_renter": -1.082211278606813, "z_pct_no_vehicle": -0.88459990534632316 }, "geometry": { "type": "Polygon", "coordinates": [ [ [ -112.064307, 33.458697 ], [ -112.063615, 33.458697 ], [ -112.062522, 33.458694 ], [ -112.062055, 33.458688 ], [ -112.061501, 33.458681 ], [ -112.060793, 33.458682 ], [ -112.060657, 33.458682 ], [ -112.058935, 33.458681 ], [ -112.057103, 33.45868 ], [ -112.056506, 33.458685 ], [ -112.056439, 33.458688 ], [ -112.056442, 33.45816 ], [ -112.056437, 33.457746 ], [ -112.056434, 33.45678 ], [ -112.056439, 33.455953 ], [ -112.056444, 33.455821 ], [ -112.057001, 33.455821 ], [ -112.058836, 33.455816 ], [ -112.058943, 33.455819 ], [ -112.060355, 33.455821 ], [ -112.060509, 33.455817 ], [ -112.06067, 33.455813 ], [ -112.061902, 33.455816 ], [ -112.062061, 33.455827 ], [ -112.06521, 33.455837 ], [ -112.065212, 33.456566 ], [ -112.065213, 33.456729 ], [ -112.065215, 33.457554 ], [ -112.065218, 33.458678 ], [ -112.064307, 33.458697 ] ] ] } },
{ "type": "Feature", "properties": { "geoid": "040131130001", "total_population": 2935, "hvi": -0.86347649614528788, "z_svi": -1.4261157348195836, "z_pct_age65_plus": -0.69910607280809867, "z_pct_age_under5": -0.45432090225028904, "z_asthma_chd_prevalence": -1.0473383573066757, "z_pct_renter": -0.16082000690940554, "z_pct_no_vehicle": -1.3931579027776744 }, "geometry": { "type": "Polygon", "coordinates": [ [ [ -112.068639, 33.462218 ], [ -112.068157, 33.462221 ], [ -112.067822, 33.462211 ], [ -112.065627, 33.462066 ], [ -112.065327, 33.462047 ], [ -112.065164, 33.462037 ], [ -112.065188, 33.461449 ], [ -112.065187, 33.460956 ], [ -112.065186, 33.460296 ], [ -112.065198, 33.459988 ], [ -112.065217, 33.45948 ], [ -112.065218, 33.458678 ], [ -112.065416, 33.458674 ], [ -112.066228, 33.45868 ], [ -112.067473, 33.458681 ], [ -112.06798, 33.458682 ], [ -112.068703, 33.458697 ], [ -112.06885074337309, 33.458699357631048 ], [ -112.068893825216321, 33.46220963268744 ], [ -112.068639, 33.462218 ] ] ] } },
{ "type": "Feature", "properties": { "geoid": "040131130002", "total_population": 1106, "hvi": -0.66218652472894546, "z_svi": -1.4261157348195836, "z_pct_age65_plus": 0.14699864964770037, "z_pct_age_under5": -0.1209957471766659, "z_asthma_chd_prevalence": -1.0473383573066757, "z_pct_renter": -0.13251005594077367, "z_pct_no_vehicle": -1.3931579027776744 }, "geometry": { "type": "Polygon", "coordinates": [ [ [ -112.065073, 33.464903 ], [ -112.065072, 33.464669 ], [ -112.065074, 33.464554 ], [ -112.065108, 33.463939 ], [ -112.06511, 33.463909 ], [ -112.065117, 33.463796 ], [ -112.065127, 33.463619 ], [ -112.065145, 33.46276 ], [ -112.065152, 33.462404 ], [ -112.065158, 33.462179 ], [ -112.065164, 33.462037 ], [ -112.065327, 33.462047 ], [ -112.065627, 33.462066 ], [ -112.067822, 33.462211 ], [ -112.068157, 33.462221 ], [ -112.068639, 33.462218 ], [ -112.068893825216321, 33.46220963268744 ], [ -112.068935850161452, 33.465633204505579 ], [ -112.065083405231846, 33.465666366425204 ], [ -112.065073, 33.464903 ] ] ] } }
]
}
