{
"type": "FeatureCollection",
"name": "optimizer_selection",
"crs": { "type": "name", "properties": { "name": "urn:ogc:def:crs:OGC:1.3:CRS84" } },
"features": [
{ "type": "Feature", "properties": { "area_m2": 3606.4800000046353, "ownership": "public_parcel", "candidate_id": "plant-00656-park_lot_tree_cluster", "intervention_type": "park_lot_tree_cluster", "capacity": 56, "unit_cost_usd": 425.0, "total_cost_usd": 23800.0, "delta_t_peak_degc": 5.191191478923125, "shade_hours_delivered": 0.0, "delta_t_degc": null, "current_albedo_proxy": null, "ewcb_person_degree_hours": 6701.049739463142, "ewcb_low": 6464.1171237452709, "ewcb_high": 6937.9823551810132, "solve_rank": 1, "marginal_gain_ewcb": 6716.6392356324559, "cumulative_ewcb": 6716.6392356324559, "cumulative_cost_usd": 23800.0, "solve_budget_usd": 50000.0 }, "geometry": { "type": "Polygon", "coordinates": [ [ [ -112.047517601701529, 33.455826485465309 ], [ -112.047516235233317, 33.455712856092944 ], [ -112.04752269043955, 33.45571280154963 ], [ -112.047519632162519, 33.455458488185187 ], [ -112.047526087349908, 33.455458433642043 ], [ -112.047524395543149, 33.455317749648906 ], [ -112.047517940366177, 33.455317804191758 ], [ -112.047517615022073, 33.455290749577244 ], [ -112.047524070197042, 33.455290695034456 ], [ -112.047523484575137, 33.455241996728162 ], [ -112.047529939746482, 33.455241942185147 ], [ -112.047528182878423, 33.45509584726419 ], [ -112.04753463803894, 33.455095792721139 ], [ -112.047534182553875, 33.455057916259662 ], [ -112.047540637711563, 33.455057861716334 ], [ -112.04754024729408, 33.455025396177803 ], [ -112.047546702449338, 33.455025341634204 ], [ -112.04754650723963, 33.455009108864914 ], [ -112.047552962393667, 33.455009054321025 ], [ -112.047552571972304, 33.454976588782358 ], [ -112.047546116820669, 33.454976643326184 ], [ -112.047545986681172, 33.454965821479895 ], [ -112.047539531530319, 33.454965876023365 ], [ -112.047539466460975, 33.454960465100186 ], [ -112.04753301131052, 33.454960519643308 ], [ -112.047532946241603, 33.454955108720121 ], [ -112.047526491091531, 33.454955163262895 ], [ -112.047526360954564, 33.454944341416507 ], [ -112.04751990580526, 33.454944395958918 ], [ -112.047519840737209, 33.45493898503571 ], [ -112.047513385588289, 33.454939039577766 ], [ -112.047513320520636, 33.454933628654544 ], [ -112.047506865372114, 33.454933683196252 ], [ -112.047506800304902, 33.454928272272994 ], [ -112.047500345156749, 33.454928326814375 ], [ -112.047500280089935, 33.454922915891125 ], [ -112.047493824942165, 33.454922970432129 ], [ -112.047493759875792, 33.454917559508864 ], [ -112.047480849581007, 33.454917668589871 ], [ -112.047480784515457, 33.454912257666571 ], [ -112.047364591866497, 33.454913239334971 ], [ -112.047364526808153, 33.454907828411464 ], [ -112.047106320917464, 33.454910009506612 ], [ -112.047106255875192, 33.454904598582651 ], [ -112.046854505120621, 33.454906724632394 ], [ -112.046854440093981, 33.454901313708007 ], [ -112.046531682697733, 33.454904038664665 ], [ -112.046531747704321, 33.454909449589621 ], [ -112.046525292555557, 33.454909504080199 ], [ -112.046525357561777, 33.454914915005155 ], [ -112.046512447263382, 33.454915023985329 ], [ -112.046512512268819, 33.454920434910292 ], [ -112.046506057119188, 33.454920489399896 ], [ -112.046506122124228, 33.454925900324881 ], [ -112.046499666974199, 33.454925954814144 ], [ -112.046499731978855, 33.454931365739142 ], [ -112.0464932768284, 33.454931420228078 ], [ -112.046493341832672, 33.454936831153077 ], [ -112.046486886681805, 33.454936885641679 ], [ -112.046486951685694, 33.454942296566692 ], [ -112.0464804965344, 33.454942351054981 ], [ -112.046480691544986, 33.454958583829999 ], [ -112.046487146697473, 33.454958529341681 ], [ -112.046487211701447, 33.454963940266659 ], [ -112.046525942618473, 33.454963613329582 ], [ -112.046526007624863, 33.454969024254495 ], [ -112.046545373084342, 33.454968860781385 ], [ -112.046545438091954, 33.45497427170627 ], [ -112.046564803552471, 33.454974108230104 ], [ -112.046564673534874, 33.454963286380412 ], [ -112.046680866280312, 33.454962305460356 ], [ -112.046680931296322, 33.454967716384985 ], [ -112.046719662212638, 33.45496738938737 ], [ -112.046719727231064, 33.454972800311957 ], [ -112.04672618238412, 33.454972745811155 ], [ -112.046726312421825, 33.454983567660271 ], [ -112.046719857267959, 33.45498362216108 ], [ -112.046720832546995, 33.455064786028956 ], [ -112.046746653186361, 33.455064568023026 ], [ -112.046746002983895, 33.455010458778347 ], [ -112.046862195785508, 33.455009477687121 ], [ -112.046862260812887, 33.455014888611409 ], [ -112.04687517112464, 33.455014779594542 ], [ -112.046876991920897, 33.455166285472075 ], [ -112.046870536753815, 33.455166339980984 ], [ -112.046870991952204, 33.45520421644985 ], [ -112.04686453678228, 33.455204270958511 ], [ -112.046864601810299, 33.455209681882629 ], [ -112.046812960447184, 33.455210117939906 ], [ -112.046812895422391, 33.455204707015696 ], [ -112.046632150653991, 33.455206233046503 ], [ -112.046632085640425, 33.455200822121988 ], [ -112.046625630470274, 33.455200876618207 ], [ -112.046624590262027, 33.455114301825041 ], [ -112.046631045425769, 33.455114247328986 ], [ -112.046630590333251, 33.455076370856666 ], [ -112.046566038723157, 33.455076915801158 ], [ -112.046565973713996, 33.4550715048764 ], [ -112.046559518553309, 33.455071559368996 ], [ -112.046559128501244, 33.455039093820332 ], [ -112.046565583659543, 33.455039039327808 ], [ -112.046564998579001, 33.454990341004596 ], [ -112.046545633114874, 33.454990504480847 ], [ -112.046545698122543, 33.454995915405711 ], [ -112.046526332657052, 33.454996078878978 ], [ -112.046526267650577, 33.454990667954085 ], [ -112.046461716101831, 33.454991212843048 ], [ -112.046462236122039, 33.45503450024291 ], [ -112.046468691280197, 33.455034445755437 ], [ -112.046469081298483, 33.455066911305067 ], [ -112.046475536459042, 33.45506685681719 ], [ -112.046475926480355, 33.455099322366571 ], [ -112.046482381643287, 33.455099267878296 ], [ -112.046483486713925, 33.455191253600404 ], [ -112.046477031544171, 33.455191308088878 ], [ -112.046477811592226, 33.455256239186127 ], [ -112.046484266766797, 33.455256184697532 ], [ -112.04648433177131, 33.455261595622254 ], [ -112.046845821541311, 33.455258543723744 ], [ -112.046845886568292, 33.455263954647847 ], [ -112.046858796917022, 33.455263845631954 ], [ -112.046858861944813, 33.455269256556043 ], [ -112.046865317119554, 33.455269202047589 ], [ -112.046865382147772, 33.455274612971643 ], [ -112.046871837322897, 33.455274558462833 ], [ -112.046871967380184, 33.455285380310912 ], [ -112.046878422556091, 33.455285325801746 ], [ -112.046879658111422, 33.455388133357324 ], [ -112.046873202927898, 33.455388187866703 ], [ -112.046877885060397, 33.455777774377999 ], [ -112.046884340272769, 33.455777719867825 ], [ -112.046884600395487, 33.455799363562107 ], [ -112.04689105560945, 33.455799309051564 ], [ -112.046891185671711, 33.455810130898662 ], [ -112.046897640886456, 33.455810076387742 ], [ -112.046897705918013, 33.455815487311263 ], [ -112.046904161133142, 33.455815432800009 ], [ -112.04690422616514, 33.455820843723508 ], [ -112.046917136596136, 33.455820734699969 ], [ -112.046917201628929, 33.455826145623448 ], [ -112.046968843355486, 33.455825709515707 ], [ -112.046968908391506, 33.4558311204391 ], [ -112.047517601701529, 33.455826485465309 ] ], [ [ -112.047361700639144, 33.455746630568541 ], [ -112.047310058965962, 33.455747066839017 ], [ -112.047309993908954, 33.455741655916135 ], [ -112.047142158473861, 33.45574307364636 ], [ -112.047142223520439, 33.455748484569511 ], [ -112.046993753693457, 33.455749738526393 ], [ -112.046992648060652, 33.455657752827605 ], [ -112.047070110498467, 33.455657098613678 ], [ -112.047069655205689, 33.455619222149998 ], [ -112.046979282400613, 33.455619985393774 ], [ -112.046979217364466, 33.455614574470218 ], [ -112.046972762164387, 33.455614628985096 ], [ -112.046969835573933, 33.455371137419448 ], [ -112.046950470027653, 33.455371300960572 ], [ -112.046950404993922, 33.455365890036752 ], [ -112.046943949812189, 33.455365944549783 ], [ -112.046942974314177, 33.455284780691642 ], [ -112.046994615719385, 33.455284344579354 ], [ -112.046993249961389, 33.455170715178014 ], [ -112.046999705128542, 33.455170660662688 ], [ -112.046999510019688, 33.455154427890925 ], [ -112.046993054853729, 33.455154482406208 ], [ -112.046991949246603, 33.455062496698545 ], [ -112.047121052426121, 33.455061406332888 ], [ -112.047120987382556, 33.45505599540909 ], [ -112.047456655595937, 33.455053159829987 ], [ -112.04745672066035, 33.455058570753209 ], [ -112.047463175818237, 33.455058516213931 ], [ -112.047464867509518, 33.455199200215716 ], [ -112.0474584123412, 33.455199254755293 ], [ -112.047460559491526, 33.455377815214767 ], [ -112.047447649128401, 33.455377924293629 ], [ -112.047448299775724, 33.45543203352296 ], [ -112.047454754961322, 33.455431978983569 ], [ -112.047454820026545, 33.455437389906479 ], [ -112.047461275212513, 33.45543733536676 ], [ -112.04746407305106, 33.455670005046159 ], [ -112.047457617847854, 33.455670059586367 ], [ -112.047458333574752, 33.455729579735596 ], [ -112.047367960666435, 33.455730343264889 ], [ -112.047368090787614, 33.455741165110453 ], [ -112.047361635578937, 33.455741219645759 ], [ -112.047361700639144, 33.455746630568541 ] ] ] } },
{ "type": "Feature", "properties": { "area_m2": 2541.2400000054754, "ownership": "public_parcel", "candidate_id": "plant-01058-park_lot_tree_cluster", "intervention_type": "park_lot_tree_cluster", "capacity": 39, "unit_cost_usd": 425.0, "total_cost_usd": 16575.0, "delta_t_peak_degc": 4.0802376433143115, "shade_hours_delivered": 0.0, "delta_t_degc": null, "current_albedo_proxy": null, "ewcb_person_degree_hours": 3106.4923697232316, "ewcb_low": 2996.6544500713899, "ewcb_high": 3216.3302893750706, "solve_rank": 2, "marginal_gain_ewcb": 3106.4923697232311, "cumulative_ewcb": 9823.1316053556875, "cumulative_cost_usd": 40375.0, "solve_budget_usd": 50000.0 }, "geometry": { "type": "Polygon", "coordinates": [ [ [ -112.045445936393477, 33.450502845983756 ], [ -112.045445481895626, 33.450464969468861 ], [ -112.045451936717356, 33.450464915040861 ], [ -112.045446612630244, 33.450021218706844 ], [ -112.045420793474719, 33.450021436413216 ], [ -112.045421118102823, 33.450048491068877 ], [ -112.045414663311888, 33.450048545494688 ], [ -112.045418234227625, 33.450346146699644 ], [ -112.04541177941465, 33.450346201125726 ], [ -112.045411844340464, 33.450351612056615 ], [ -112.045302112510271, 33.450352537248833 ], [ -112.04530204759125, 33.450347126317759 ], [ -112.045295592777947, 33.450347180737793 ], [ -112.045293255719443, 33.450152387215873 ], [ -112.045299710518307, 33.450152332796243 ], [ -112.04529808756422, 33.450017059513712 ], [ -112.045220630096821, 33.450017712523845 ], [ -112.045220695009974, 33.450023123455338 ], [ -112.04516905669378, 33.450023558768642 ], [ -112.045169186513718, 33.450034380631791 ], [ -112.045162731723309, 33.450034435044472 ], [ -112.045165003569394, 33.450223817646823 ], [ -112.045158548764945, 33.450223872059539 ], [ -112.045159976784532, 33.450342912549665 ], [ -112.045153521971258, 33.450342966962303 ], [ -112.045153586881042, 33.450348377893604 ], [ -112.045101948370998, 33.4503488131827 ], [ -112.045101883464412, 33.450343402251271 ], [ -112.045037335329297, 33.450343946332282 ], [ -112.045035972379395, 33.450230316769158 ], [ -112.045042427184569, 33.450230262362794 ], [ -112.045040025800404, 33.450030057889641 ], [ -112.044988387477119, 33.450030493127784 ], [ -112.044988322578391, 33.4500250821959 ], [ -112.044755950124326, 33.450027040501105 ], [ -112.044758221085658, 33.450216423128289 ], [ -112.044764675890377, 33.450216368736413 ], [ -112.044765000317156, 33.450243423396898 ], [ -112.044758545510433, 33.450243477788824 ], [ -112.044761465352963, 33.450486969728253 ], [ -112.044774375002447, 33.450486860943059 ], [ -112.044774439889025, 33.450492271874921 ], [ -112.044819623664509, 33.450491891116059 ], [ -112.044819688553915, 33.450497302047815 ], [ -112.044897146457558, 33.450496649279913 ], [ -112.044897211351795, 33.450502060211548 ], [ -112.045058581986368, 33.450500700122774 ], [ -112.045058517082111, 33.450495289191416 ], [ -112.045129520153495, 33.450494690685957 ], [ -112.045129455244862, 33.450489279754734 ], [ -112.045271461372494, 33.45048808262213 ], [ -112.045271526289952, 33.450493493553118 ], [ -112.045316710058884, 33.450493112613103 ], [ -112.045316774979156, 33.450498523544013 ], [ -112.045368413574408, 33.450498088163762 ], [ -112.045368478497906, 33.45050349909458 ], [ -112.045445936393477, 33.450502845983756 ] ] ] } },
{ "type": "Feature", "properties": { "area_m2": 974.16000000115946, "ownership": "public_parcel", "candidate_id": "plant-01169-park_lot_tree_cluster", "intervention_type": "park_lot_tree_cluster", "capacity": 15, "unit_cost_usd": 425.0, "total_cost_usd": 6375.0, "delta_t_peak_degc": 1.4831975654066074, "shade_hours_delivered": 1.0, "delta_t_degc": null, "current_albedo_proxy": null, "ewcb_person_degree_hours": 1783.6211310650278, "ewcb_low": 1720.5566804992927, "ewcb_high": 1846.685581630763, "solve_rank": 3, "marginal_gain_ewcb": 1727.2561359358299, "cumulative_ewcb": 11550.387741291517, "cumulative_cost_usd": 46750.0, "solve_budget_usd": 50000.0 }, "geometry": { "type": "Polygon", "coordinates": [ [ [ -112.044792958020452, 33.449344882256483 ], [ -112.044792893135536, 33.449339471323654 ], [ -112.044915533186597, 33.449338437810056 ], [ -112.044915468294079, 33.449333026877447 ], [ -112.045038108331255, 33.449331993242794 ], [ -112.045038043431148, 33.449326582310384 ], [ -112.045044498169375, 33.449326527905207 ], [ -112.045040539271056, 33.448996461019604 ], [ -112.044911444992081, 33.44899754904565 ], [ -112.044911380100672, 33.448992138112736 ], [ -112.044788740536845, 33.44899317161282 ], [ -112.044788675653052, 33.448987760679678 ], [ -112.044769311512013, 33.448987923852791 ], [ -112.044770154987035, 33.449058265983659 ], [ -112.044763700268106, 33.449058320374164 ], [ -112.044767139059942, 33.449345099822885 ], [ -112.044792958020452, 33.449344882256483 ] ] ] } },
{ "type": "Feature", "properties": { "area_m2": 91.080000000160652, "ownership": "public_row", "candidate_id": "plant-01204-street_tree", "intervention_type": "street_tree", "capacity": 2, "unit_cost_usd": 800.0, "total_cost_usd": 1600.0, "delta_t_peak_degc": 0.22247963481099109, "shade_hours_delivered": 1.0, "delta_t_degc": null, "current_albedo_proxy": null, "ewcb_person_degree_hours": 91.46906723553198, "ewcb_low": 88.234946284338335, "ewcb_high": 94.703188186725598, "solve_rank": 4, "marginal_gain_ewcb": 91.46906723553198, "cumulative_ewcb": 11641.856808527049, "cumulative_cost_usd": 48350.0, "solve_budget_usd": 50000.0 }, "geometry": { "type": "Polygon", "coordinates": [ [ [ -112.04758806802063, 33.448801795264131 ], [ -112.047586376540508, 33.448661111122519 ], [ -112.047521829702845, 33.448661656472758 ], [ -112.047523456025658, 33.44879692968869 ], [ -112.047568638882325, 33.448796547945108 ], [ -112.047568703938268, 33.448801958873588 ], [ -112.04758806802063, 33.448801795264131 ] ] ] } },
{ "type": "Feature", "properties": { "area_m2": 51.839999994614629, "ownership": "public_row", "candidate_id": "plant-01018-street_tree", "intervention_type": "street_tree", "capacity": 1, "unit_cost_usd": 800.0, "total_cost_usd": 800.0, "delta_t_peak_degc": 0.11277317003885155, "shade_hours_delivered": 9.0, "delta_t_degc": null, "current_albedo_proxy": null, "ewcb_person_degree_hours": 109.20395920464915, "ewcb_low": 105.34277615018964, "ewcb_high": 113.06514225910863, "solve_rank": 5, "marginal_gain_ewcb": 86.019862604001005, "cumulative_ewcb": 11727.876671131051, "cumulative_cost_usd": 49150.0, "solve_budget_usd": 50000.0 }, "geometry": { "type": "Polygon", "coordinates": [ [ [ -112.046322622680734, 33.450398043954401 ], [ -112.046322427733287, 33.450381811166615 ], [ -112.046012596653185, 33.45038442550144 ], [ -112.046012791542935, 33.450400658290832 ], [ -112.046322622680734, 33.450398043954401 ] ] ] } },
{ "type": "Feature", "properties": { "area_m2": 10.439999999923167, "ownership": "public_row", "candidate_id": "plant-00630-street_tree", "intervention_type": "street_tree", "capacity": 1, "unit_cost_usd": 800.0, "total_cost_usd": 800.0, "delta_t_peak_degc": 0.09208184885232687, "shade_hours_delivered": 10.0, "delta_t_degc": null, "current_albedo_proxy": null, "ewcb_person_degree_hours": 52.14273564099053, "ewcb_low": 50.299096923708724, "ewcb_high": 53.986374358272329, "solve_rank": 6, "marginal_gain_ewcb": 47.510830410932876, "cumulative_ewcb": 11775.387501541984, "cumulative_cost_usd": 49950.0, "solve_budget_usd": 50000.0 }, "geometry": { "type": "Polygon", "coordinates": [ [ [ -112.045669355744451, 33.455133185386678 ], [ -112.045669290790883, 33.455127774460436 ], [ -112.045675745957581, 33.455127720014112 ], [ -112.04567568100363, 33.455122309087876 ], [ -112.045682136169901, 33.455122254641225 ], [ -112.04568194130691, 33.455106021862498 ], [ -112.045662575811591, 33.455106185201323 ], [ -112.045662640764704, 33.455111596127594 ], [ -112.04564973043361, 33.455111705018496 ], [ -112.045649795385941, 33.455117115944802 ], [ -112.04563042988795, 33.455117279278667 ], [ -112.045630624741449, 33.455133512057635 ], [ -112.045669355744451, 33.455133185386678 ] ] ] } }
]
}
